ICEYE-X26               
1 56961U 23084AF  26068.94217167  .00072488  00000+0  52392-3 0  9995
2 56961  97.5771 224.5701 0000918 250.4470 109.6694 15.73279775153542
STARLINK-11406 [DTC]    
1 63057U 25035F   26068.25768130  .00136921  00000+0  10519-2 0  9999
2 63057  43.0012  17.8809 0001862 266.1244  93.9410 15.70866877 61039
